NORAD_CAT_ID,OBJECT_NAME,OBJECT_TYPE,EPOCH,MEAN_MOTION,ECCENTRICITY,INCLINATION,RA_OF_ASC_NODE,ARG_OF_PERICENTER,MEAN_ANOMALY,BSTAR,MEAN_MOTION_DOT,MEAN_MOTION_DDOT,TLE_LINE0,TLE_LINE1,TLE_LINE2,SEMIMAJOR_AXIS,PERIOD,APOGEE,PERIGEE,DECAYED
54176.0,STARLINK-5154,PAYLOAD,2024-08-21 10:09:31,15.08848021,0.0001481,53.2172,21.5542,85.0274,275.0887,0.00035263,5.33e-05,0.0,0 STARLINK-5154,1 54176U 22141V   24234.42327872  .00005330  00000-0  35263-3 0  9996,2 54176  53.2172  21.5542 0001481  85.0274 275.0887 15.08848021100526,6917.856,95.437,540.745,538.696,0.0
54176.0,STARLINK-5154,PAYLOAD,2024-08-21 14:55:40,15.0883887,7.71e-05,53.2174,20.6537,108.9008,251.2067,0.00016127,2.28e-05,0.0,0 STARLINK-5154,1 54176U 22141V   24234.62200007  .00002280  00000-0  16127-3 0  9997,2 54176  53.2174  20.6537 0000771 108.9008 251.2067 15.08838870100553,6917.884,95.438,540.282,539.215,0.0
